#dP2022  1 21  0  0  0.00000000      96 __u+U ITR00 FIT  IAC
## 2193 432000.00000000   900.00000000 59600 0.0000000000000
+  112   C06C07C08C09C10C11C12C13C14C16C19C20C21C22C23C24C25
+        C26C27C28C29C30C32C33C34C35C36C37C38C39C40C41C42C43
+        C44C45C46E01E02E03E04E05E07E08E09E11E12E13E14E15E18
+        E19E21E24E25E26E27E30E31E33E36G01G02G03G04G05G06G07
+        G08G09G10G11G12G13G14G15G16G17G18G19G20G21G23G24G25
+        G26G27G28G29G30G31G32R01R02R03R04R05R07R08R09R11R12
+        R13R14R15R17R18R19R20R21R22R24  0  0  0  0  0  0  0
++         8  7  6  8  6  6  6  7  7  8  7  8  7  8  7  6  7
++         6  8  8  8  7  7  6  6  6  9  8  8  8  9  7  7  7
++         6  7  9  6  4  5  5  6  7  7  6  5  7  5  6  7  5
++         8  5  7  6  6  5  7  5  5  7  6  5  6  4  6  5  5
++         6  6  6  6  6  5  6  6  6  6  5  6  5  5  6  6  4
++         6  6  6  6  5  6  6  6  6  6  6  6  6  6  7  7  5
++         5  6  6  6  7  7  8  6  7  7  0  0  0  0  0  0  0
%c M  cc GPS ccc cccc cccc cccc cccc ccccc ccccc ccccc ccccc
%c cc cc ccc ccc cccc cccc cccc cccc ccccc ccccc ccccc ccccc
%f  0.0000000  0.000000000  0.00000000000  0.000000000000000
%f  0.0000000  0.000000000  0.00000000000  0.000000000000000
%i    0    0    0    0      0      0      0      0         0
%i    0    0    0    0      0      0      0      0         0
/* INFORMATION & ANALYSIS CENTER (IAC)      ULTRA-RAPID DATA
/* S/V CLOCKS ARE ALIGNED TO GNSS TIME                      
/* G:C1WC2W R:C1PC2P E:C1XC5X C:C2IC6I J:C1CC2S             
/* PCV:IGS14_2188 OL/AL:FES2004  NONE     YN ORB:CoN CLK:CoN
*  2022 01 21 23 15  0.00000000
PC06  -2158.137400  36100.315793  21829.378988    -82.692291
PC07 -11469.424119  25646.466393 -31451.718880     43.003014
PC08 -17563.774249  36287.303830  12074.661008     77.019569
PC09   3138.758361  39717.486745  14825.751830   -454.954666
PC10  -3871.935482  26486.229195 -32341.069199    139.666072
PC11 -15639.342999   1493.543973 -22995.649836   -256.179126
PC12 -16948.758368 -17234.004120 -13912.767858   -434.636240
PC13 -11742.772535  36485.690075  17391.170440   -139.902784
PC14 -26705.870607   2354.243084   7862.338241    465.881797
PC16  -3850.649639  34441.516051  24319.394230     62.195023
PC19  21258.911815  -8531.966620 -15905.522917    907.043578
PC20  27722.208137   3077.897394   -241.325210   -808.727849
PC21 -17929.955902 -13576.531629 -16515.861482   -968.444919
PC22   2208.098518 -15671.608123 -22983.662618   -958.954910
PC23  -9000.173389  24271.042532 -10412.538001   -970.516813
PC24 -18982.416628    765.468289  20414.103901   -944.709304
PC25 -19336.014262  19057.270855   6389.784058   -791.123366
PC26  -8161.858034 -15392.794651  21792.628803    790.210266
PC27  13950.008409  23477.547063   5771.235652    665.069843
PC28   1817.681322  25357.285434 -11502.352993     23.595548
PC29  11156.644568 -12656.681917  22223.890982    504.584273
PC30  18413.766397   7942.388098  19414.183545    491.682110
PC32  17949.033355  13488.706514  16583.386143   -959.386098
PC33 -21288.027564   8639.268460  15853.567533   -954.975677
PC34 -18319.770010  -6912.300577 -19879.707604   -486.567288
PC35  -2132.109306 -25053.040353  12063.033014    103.785722
PC36  19927.414166 -18310.028298  -6818.355466   -874.509857
PC37   6945.894378  16366.945242 -21493.081205   -948.534525
PC38 -20928.252350  36171.733635   4969.904268    205.807037
PC39  -5505.882709  31533.094619  27526.341046     34.697470
PC40 -16456.606050  19349.571568 -33696.921903    237.659337
PC41  -2665.543316  15677.454255  22980.458283   -926.036500
PC42 -27670.381827  -3615.007722   -615.589200   -929.199380
PC43 -11688.511891  12057.722341 -22295.464844   -946.565238
PC44 -14701.152052 -23032.190159  -5581.907453    539.308214
PC45   8871.265936 -24245.088293  10627.028571    659.984657
PC46  19458.403833  -2282.898422 -19892.442053   -127.024832
PE01 -13736.673539 -11400.802601  23606.974023   -564.026532
PE02  13922.804900  11286.499151 -23565.543852    275.135418
PE03  21228.246044  19907.663842   5376.145039   -519.542052
PE04 -25703.323072  -7485.672368  12626.901584   -947.796248
PE05   4188.553214  20870.880199  20566.894172   -216.428066
PE07  15057.079982  -9669.476027 -23577.224993   -630.896141
PE08  25613.051947   7096.843956 -13026.248710   5868.240297
PE09 -14763.457110   9775.544575  23720.713244   5387.086875
PE11 -13025.069062  20456.112807 -16984.003499   4627.842731
PE12 -16097.871973  -1337.650536 -24797.055551   4798.410944
PE13  13172.069386 -19916.734795  17499.816077    425.854314
PE14   7018.879071 -14582.045670  18207.327581  -1718.378472
PE15  16017.452176   1472.487019  24861.313745    767.928351
PE18 -15915.414445  12686.106661 -24543.437381  -1884.712770
PE19 -19649.196719 -20753.943507  -7690.827913    483.358829
PE21   6214.872775 -19020.751849  21812.962492   -712.607618
PE24 -24404.779721  15508.306835  -6264.518838  -1347.986527
PE25  -6458.857574  19050.844907 -21706.286472   -561.050745
PE26   2055.260454 -29508.408654  -1110.659896   -714.936480
PE27  23703.470933 -16139.453949   7378.474721   -214.779963
PE30  26831.339699  -2799.341186 -12221.574276   -210.927777
PE31 -27096.174081   3775.047779  11290.134966   -491.082434
PE33  -9401.443258 -21908.135950 -17527.518874   -460.167800
PE36  -2591.051274  29490.943034    124.373750   -321.348782
PG01  13419.603935 -18761.337564  12575.095083    451.274123
PG02 -14592.909429  -2571.863628 -21381.038817   -649.203114
PG03  20900.442408 -13073.650689  -9848.005011    -87.747256
PG04  11371.696843 -10110.631469 -21768.171956   -193.820973
PG05 -25690.491337   4434.340106  -5644.106950    -68.711924
PG06  -7082.997840 -18825.396226 -17238.065457    177.773039
PG07   4796.180873 -25777.882653   2281.233845    303.916312
PG08  19045.304685    -16.683144  18634.810632    -53.100340
PG09    132.789205 -18399.952415 -19214.373361   -357.140687
PG10   7005.466978  13519.950479  21919.712432   -299.595996
PG11 -14307.601439  -5172.986616 -21774.657216    -66.545563
PG12 -23085.434141  10502.672515  -7907.026794   -159.320700
PG13 -20142.295316  -8961.454644  14773.596337    249.092784
PG14  -5808.398874 -14329.763889  21594.046811    -73.878092
PG15 -18960.444091   2736.519386  18121.822353    -89.767273
PG16  25415.223660   1080.298022  -8688.689749   -458.932517
PG17 -11558.107575 -22040.562014   9652.483017    564.625287
PG18  -5222.586866  25878.463040   2352.060159    256.227468
PG19 -16828.903724 -20653.470812    687.629451    108.649398
PG20 -21913.500945  -1614.994485 -14746.127343    517.064261
PG21  15599.455865  -9425.301259  19782.042847    156.590576
PG23  -5959.036736  16386.895590  19994.585950      8.844121
PG24 -14327.089123  15344.937896  15732.018137    276.982664
PG25 -13058.454072  16119.404558 -16702.371411    274.312552
PG26  17787.788939   7957.620402 -18256.808887    176.456158
PG27  21867.410542  10388.374411  11174.600361     81.414751
PG28 -13738.606562 -11401.243639  20118.127024    417.173445
PG29  -4104.112907  16123.144301 -20734.420111   -470.324499
PG30  -1765.795805 -24136.708252  10725.690910   -508.328784
PG31   9140.617516  16561.314215 -18573.221613   -161.055735
PG32  15910.607804  20621.534007   5819.005194    -54.349428
PR01  -1647.760687 -11764.414178 -22574.723471      7.129534
PR02 -19930.219746 -11690.895136 -10692.969776    507.255692
PR03 -24219.543207  -4269.791276   6700.147109     50.303554
PR04 -14847.672677   5144.823106  20114.493839    124.541819
PR05   2675.833244  11864.344509  22434.588100     86.360695
PR07  24142.627688   4000.562896  -7252.093276     30.902132
PR08  14837.070954  -5272.093414 -20023.878177    -63.204704
PR09   8189.316010   7793.878750 -22851.466859     35.335498
PR11  18646.128757 -17392.818339   -499.383020     46.849424
PR12   7613.578726 -17885.262613  16551.720598    296.891602
PR13  -7131.721165  -8414.157601  22979.334721    -17.340472
PR14 -18696.838127   6922.774161  15923.032121     73.483246
PR15 -18646.409865  17401.022326   -213.321577     98.734329
PR17 -11362.773352  -4288.872061 -22422.001043    494.685860
PR18  -6572.853090  13555.270666 -20580.071439    104.630702
PR19    402.131315  23905.719254  -8882.393635   -175.283158
PR20   8939.807643  21092.077310  11280.535500    -63.480234
PR21  11085.417877   2751.298981  22811.499293   -271.902669
PR22   6274.584527 -14220.696326  20185.180232   -159.615316
PR24  -9806.273544 -20404.064722 -11743.388029     76.714479
EOF
